[
    {
        "Altitude(m)": 559864.1284743955,
        "Argument of Periapsis(deg)": 0.006622991110713501,
        "Eccentricity": 0.0,
        "Inclination(deg)": 53.0,
        "Latitude(deg)": 52.9897839643429,
        "Longitude(deg)": 120.42449161873036,
        "Mean Anomaly(deg)": 93.72799286757758,
        "RAAN(deg)": 124.99014336852804,
        "Satellite Name": "Starlink Shell 1 555",
        "Satellite Number": 555,
        "Semi-Major Axis(m)": 6931778.249405717,
        "Time(s)": 190
    },
    {
        "Altitude(m)": 559850.9038730242,
        "Argument of Periapsis(deg)": 0.0069715695902247375,
        "Eccentricity": 0.0,
        "Inclination(deg)": 53.0,
        "Latitude(deg)": 52.93123782332095,
        "Longitude(deg)": 121.41641467358755,
        "Mean Anomaly(deg)": 94.3548240711343,
        "RAAN(deg)": 124.98962459845055,
        "Satellite Name": "Starlink Shell 1 555",
        "Satellite Number": 555,
        "Semi-Major Axis(m)": 6931778.249405717,
        "Time(s)": 200
    },
    {
        "Altitude(m)": 559835.6401172492,
        "Argument of Periapsis(deg)": 0.007320148069735974,
        "Eccentricity": 0.0,
        "Inclination(deg)": 53.0,
        "Latitude(deg)": 52.86373755483311,
        "Longitude(deg)": 122.40534313799155,
        "Mean Anomaly(deg)": 94.98165527469101,
        "RAAN(deg)": 124.98910582837308,
        "Satellite Name": "Starlink Shell 1 555",
        "Satellite Number": 555,
        "Semi-Major Axis(m)": 6931778.249405717,
        "Time(s)": 210
    },
    {
        "Altitude(m)": 559818.3464073096,
        "Argument of Periapsis(deg)": 0.007668726549247212,
        "Eccentricity": 0.0,
        "Inclination(deg)": 53.0,
        "Latitude(deg)": 52.78733236070216,
        "Longitude(deg)": 123.39087149362392,
        "Mean Anomaly(deg)": 95.60848647824777,
        "RAAN(deg)": 124.98858705829561,
        "Satellite Name": "Starlink Shell 1 555",
        "Satellite Number": 555,
        "Semi-Major Axis(m)": 6931778.249405717,
        "Time(s)": 220
    },
    {
        "Altitude(m)": 559799.0331652615,
        "Argument of Periapsis(deg)": 0.00801730502875845,
        "Eccentricity": 0.0,
        "Inclination(deg)": 53.0,
        "Latitude(deg)": 52.70207750695093,
        "Longitude(deg)": 124.37260400891698,
        "Mean Anomaly(deg)": 96.23531768180446,
        "RAAN(deg)": 124.98806828821813,
        "Satellite Name": "Starlink Shell 1 555",
        "Satellite Number": 555,
        "Semi-Major Axis(m)": 6931778.249405717,
        "Time(s)": 230
    },
    {
        "Altitude(m)": 559777.7120298928,
        "Argument of Periapsis(deg)": 0.008365883508269684,
        "Eccentricity": 0.0,
        "Inclination(deg)": 53.0,
        "Latitude(deg)": 52.608034131429136,
        "Longitude(deg)": 125.35015624791023,
        "Mean Anomaly(deg)": 96.8621488853612,
        "RAAN(deg)": 124.98754951814067,
        "Satellite Name": "Starlink Shell 1 555",
        "Satellite Number": 555,
        "Semi-Major Axis(m)": 6931778.249405717,
        "Time(s)": 240
    },
    {
        "Altitude(m)": 559754.3958510555,
        "Argument of Periapsis(deg)": 0.008714461987780921,
        "Eccentricity": 0.0,
        "Inclination(deg)": 53.0,
        "Latitude(deg)": 52.50526903413688,
        "Longitude(deg)": 126.32315499291138,
        "Mean Anomaly(deg)": 97.48898008891788,
        "RAAN(deg)": 124.9870307480632,
        "Satellite Name": "Starlink Shell 1 555",
        "Satellite Number": 555,
        "Semi-Major Axis(m)": 6931778.249405717,
        "Time(s)": 250
    },
    {
        "Altitude(m)": 559729.0986833754,
        "Argument of Periapsis(deg)": 0.009063040467292158,
        "Eccentricity": 0.0,
        "Inclination(deg)": 53.0,
        "Latitude(deg)": 52.39385445187681,
        "Longitude(deg)": 127.29123960204126,
        "Mean Anomaly(deg)": 98.1158112924746,
        "RAAN(deg)": 124.98651197798571,
        "Satellite Name": "Starlink Shell 1 555",
        "Satellite Number": 555,
        "Semi-Major Axis(m)": 6931778.249405717,
        "Time(s)": 260
    },
    {
        "Altitude(m)": 559701.835779432,
        "Argument of Periapsis(deg)": 0.009411618946803396,
        "Eccentricity": 0.0,
        "Inclination(deg)": 53.0,
        "Latitude(deg)": 52.273867818963105,
        "Longitude(deg)": 128.25406328493838,
        "Mean Anomaly(deg)": 98.74264249603131,
        "RAAN(deg)": 124.98599320790825,
        "Satellite Name": "Starlink Shell 1 555",
        "Satellite Number": 555,
        "Semi-Major Axis(m)": 6931778.249405717,
        "Time(s)": 270
    },
    {
        "Altitude(m)": 559672.6235822635,
        "Argument of Periapsis(deg)": 0.009760197426314633,
        "Eccentricity": 0.0,
        "Inclination(deg)": 53.0,
        "Latitude(deg)": 52.14539151568603,
        "Longitude(deg)": 129.21129278156033,
        "Mean Anomaly(deg)": 99.36947369958804,
        "RAAN(deg)": 124.98547443783077,
        "Satellite Name": "Starlink Shell 1 555",
        "Satellite Number": 555,
        "Semi-Major Axis(m)": 6931778.249405717,
        "Time(s)": 280
    },
    {
        "Altitude(m)": 559641.4797173926,
        "Argument of Periapsis(deg)": 0.01010877590582587,
        "Eccentricity": 0.0,
        "Inclination(deg)": 53.0,
        "Latitude(deg)": 52.008512606514266,
        "Longitude(deg)": 130.16260946650283,
        "Mean Anomaly(deg)": 99.99630490314473,
        "RAAN(deg)": 124.9849556677533,
        "Satellite Name": "Starlink Shell 1 555",
        "Satellite Number": 555,
        "Semi-Major Axis(m)": 6931778.249405717,
        "Time(s)": 290
    },
    {
        "Altitude(m)": 559608.4229841747,
        "Argument of Periapsis(deg)": 0.010457354385337106,
        "Eccentricity": 0.0,
        "Inclination(deg)": 53.0,
        "Latitude(deg)": 51.863322569632594,
        "Longitude(deg)": 131.1077103669204,
        "Mean Anomaly(deg)": 100.62313610670145,
        "RAAN(deg)": 124.98443689767583,
        "Satellite Name": "Starlink Shell 1 555",
        "Satellite Number": 555,
        "Semi-Major Axis(m)": 6931778.249405717,
        "Time(s)": 300
    },
    {
        "Altitude(m)": 559573.4733466371,
        "Argument of Periapsis(deg)": 0.010805932864848343,
        "Eccentricity": 0.0,
        "Inclination(deg)": 53.0,
        "Latitude(deg)": 51.70991701979181,
        "Longitude(deg)": 132.04630757974778,
        "Mean Anomaly(deg)": 101.24996731025819,
        "RAAN(deg)": 124.98391812759837,
        "Satellite Name": "Starlink Shell 1 555",
        "Satellite Number": 555,
        "Semi-Major Axis(m)": 6931778.249405717,
        "Time(s)": 310
    },
    {
        "Altitude(m)": 559536.6519237227,
        "Argument of Periapsis(deg)": 0.01115451134435958,
        "Eccentricity": 0.0,
        "Inclination(deg)": 53.0,
        "Latitude(deg)": 51.54839542619377,
        "Longitude(deg)": 132.97812911530036,
        "Mean Anomaly(deg)": 101.87679851381489,
        "RAAN(deg)": 124.98339935752088,
        "Satellite Name": "Starlink Shell 1 555",
        "Satellite Number": 555,
        "Semi-Major Axis(m)": 6931778.249405717,
        "Time(s)": 320
    },
    {
        "Altitude(m)": 559497.9809789436,
        "Argument of Periapsis(deg)": 0.011503089823870818,
        "Eccentricity": 0.0,
        "Inclination(deg)": 53.0,
        "Latitude(deg)": 51.378860827166356,
        "Longitude(deg)": 133.9029196558651,
        "Mean Anomaly(deg)": 102.50362971737161,
        "RAAN(deg)": 124.98288058744342,
        "Satellite Name": "Starlink Shell 1 555",
        "Satellite Number": 555,
        "Semi-Major Axis(m)": 6931778.249405717,
        "Time(s)": 330
    },
    {
        "Altitude(m)": 559457.4839095161,
        "Argument of Periapsis(deg)": 0.011851668303382053,
        "Eccentricity": 0.0,
        "Inclination(deg)": 53.0,
        "Latitude(deg)": 51.20141954331124,
        "Longitude(deg)": 134.8204397187009,
        "Mean Anomaly(deg)": 103.13046092092831,
        "RAAN(deg)": 124.98236181736594,
        "Satellite Name": "Starlink Shell 1 555",
        "Satellite Number": 555,
        "Semi-Major Axis(m)": 6931778.249405717,
        "Time(s)": 340
    },
    {
        "Altitude(m)": 559415.18523489,
        "Argument of Periapsis(deg)": 0.012200246782893292,
        "Eccentricity": 0.0,
        "Inclination(deg)": 53.0,
        "Latitude(deg)": 51.016180890728585,
        "Longitude(deg)": 135.7304662521379,
        "Mean Anomaly(deg)": 103.75729212448503,
        "RAAN(deg)": 124.98184304728845,
        "Satellite Name": "Starlink Shell 1 555",
        "Satellite Number": 555,
        "Semi-Major Axis(m)": 6931778.249405717,
        "Time(s)": 350
    },
    {
        "Altitude(m)": 559371.1105847511,
        "Argument of Periapsis(deg)": 0.012548825262404526,
        "Eccentricity": 0.0,
        "Inclination(deg)": 53.0,
        "Latitude(deg)": 50.823256895838156,
        "Longitude(deg)": 136.63279315540584,
        "Mean Anomaly(deg)": 104.38412332804177,
        "RAAN(deg)": 124.981324277211,
        "Satellite Name": "Starlink Shell 1 555",
        "Satellite Number": 555,
        "Semi-Major Axis(m)": 6931778.249405717,
        "Time(s)": 360
    },
    {
        "Altitude(m)": 559325.2866864735,
        "Argument of Periapsis(deg)": 0.012897403741915765,
        "Eccentricity": 0.0,
        "Inclination(deg)": 53.0,
        "Latitude(deg)": 50.62276201321895,
        "Longitude(deg)": 137.52723021330434,
        "Mean Anomaly(deg)": 105.01095453159843,
        "RAAN(deg)": 124.98080550713354,
        "Satellite Name": "Starlink Shell 1 555",
        "Satellite Number": 555,
        "Semi-Major Axis(m)": 6931778.249405717,
        "Time(s)": 370
    }
]